NORAD_CAT_ID,OBJECT_NAME,OBJECT_TYPE,EPOCH,MEAN_MOTION,ECCENTRICITY,INCLINATION,RA_OF_ASC_NODE,ARG_OF_PERICENTER,MEAN_ANOMALY,BSTAR,MEAN_MOTION_DOT,MEAN_MOTION_DDOT,TLE_LINE0,TLE_LINE1,TLE_LINE2,SEMIMAJOR_AXIS,PERIOD,APOGEE,PERIGEE,DECAYED
53434.0,STARLINK-4498,PAYLOAD,2022-10-06 22:42:55,15.73203026,0.0004073,53.2161,322.2295,2.3488,50.4134,0.00038827,0.00054249,0.0,0 STARLINK-4498,1 53434U 22097AY  22279.94646991  .00054249  00000-0  38827-3 0  9994,2 53434  53.2161 322.2295 0004073   2.3488  50.4134 15.73203026  1303,6727.887,91.533,352.492,347.011,0.0
53434.0,STARLINK-4498,PAYLOAD,2022-10-07 00:00:00,15.73217288,0.0004062,53.2159,321.9643,1.9409,354.2302,0.0002208,0.00030512,0.0,0 STARLINK-4498,1 53434U 22097AY  22280.00001157  .00030512  00000-0  22080-3 0  9993,2 53434  53.2159 321.9643 0004062   1.9409 354.2302 15.73217288  9528,6727.846,91.532,352.444,346.978,0.0
53434.0,STARLINK-4498,PAYLOAD,2022-10-07 14:00:01,15.73190854,0.0004379999999999,53.2158,319.0799,358.0579,63.7884,0.00032243,0.00044872,0.0,0 STARLINK-4498,1 53434U 22097AY  22280.58334491  .00044872  00000-0  32243-3 0  9992,2 53434  53.2158 319.0799 0004380 358.0579  63.7884 15.73190854  1308,6727.920999999999,91.534,352.733,346.839,0.0
53434.0,STARLINK-4498,PAYLOAD,2022-10-07 22:00:00,15.73180494,0.0004046,53.2156,317.4284,354.8598,155.9374,-8.623700000000001e-05,-0.00012705,0.0,0 STARLINK-4498,1 53434U 22097AY  22280.91667824 -.00012705  00000-0 -86237-4 0  9993,2 53434  53.2156 317.4284 0004046 354.8598 155.9374 15.73180494  1308,6727.951,91.534,352.538,347.094,0.0
53434.0,STARLINK-4498,PAYLOAD,2022-10-08 14:00:01,15.73173512,0.0004266,53.2149,314.1315,358.0221,330.5716,0.00036255,0.00050529,0.0,0 STARLINK-4498,1 53434U 22097AY  22281.58334491  .00050529  00000-0  36255-3 0  9996,2 53434  53.2149 314.1315 0004266 358.0221 330.5716 15.73173512  9775,6727.971,91.535,352.706,346.966,0.0
53434.0,STARLINK-4498,PAYLOAD,2022-10-08 22:00:00,15.73202012,0.000408,53.2174,312.4558,1.2701,56.1853,2.9542e-05,3.525e-05,0.0,0 STARLINK-4498,1 53434U 22097AY  22281.91667824  .00003525  00000-0  29542-4 0  9998,2 53434  53.2174 312.4558 0004080   1.2701  56.1853 15.73202012  1309,6727.889,91.533,352.499,347.009,0.0
53434.0,STARLINK-4498,PAYLOAD,2022-10-09 06:00:00,15.73401656,0.0003805,53.2161,310.8202,356.6578,149.7954,-0.0036805,-0.00492679,0.0,0 STARLINK-4498,1 53434U 22097AY  22282.25001157 -.00492679  00000-0 -36805-2 0  9999,2 53434  53.2161 310.8202 0003805 356.6578 149.7954 15.73401656  9883,6727.32,91.521,351.745,346.626,0.0
53434.0,STARLINK-4498,PAYLOAD,2022-10-09 14:00:01,15.73015391,0.0003658,53.2165,309.1638,326.6585,268.7847,-0.0042845,-0.00559563,0.0,0 STARLINK-4498,1 53434U 22097AY  22282.58334491 -.00559563  00000-0 -42845-2 0  9992,2 53434  53.2165 309.1638 0003658 326.6585 268.7847 15.73015391  1301,6728.422,91.544,352.74800000000016,347.825,0.0
53434.0,STARLINK-4498,PAYLOAD,2022-10-09 22:00:00,15.72646195,0.0004923999999999,53.2174,307.5075,287.6995,36.2361,-0.0092622,-0.01134762,0.0,0 STARLINK-4498,1 53434U 22097AY  22282.91667824 -.01134762  00000-0 -92622-2 0  9997,2 53434  53.2174 307.5075 0004924 287.6995  36.2361 15.72646195  1306,6729.475,91.565,354.653,348.026,0.0
53434.0,STARLINK-4498,PAYLOAD,2022-10-10 14:00:01,15.71025122,0.0006285,53.2172,304.2171,271.7611,226.7071,-0.0100069999999999,-0.0114389,0.0,0 STARLINK-4498,1 53434U 22097AY  22283.58334491 -.01143890  00000-0 -10007-1 0  9990,2 53434  53.2172 304.2171 0006285 271.7611 226.7071 15.71025122  1300,6734.103,91.66,360.2,351.736,0.0
53434.0,STARLINK-4498,PAYLOAD,2022-10-10 22:00:01,15.70192938,0.0003259999999999,53.2173,302.5717,268.3316,316.0116,-0.010068,-0.01112656,0.0,0 STARLINK-4498,1 53434U 22097AY  22283.91668981 -.01112656  00000-0 -10068-1 0  9994,2 53434  53.2173 302.5717 0003260 268.3316 316.0116 15.70192938  1304,6736.482,91.708,360.543,356.151,0.0
53434.0,STARLINK-4498,PAYLOAD,2022-10-11 14:00:01,15.68572076,7.77e-05,53.2172,299.2932,84.29799999999999,308.6455,-0.0108609999999999,-0.01137943,0.0,0 STARLINK-4498,1 53434U 22097AY  22284.58334491 -.01137943  00000-0 -10861-1 0  9991,2 53434  53.2172 299.2932 0000777  84.2980 308.6455 15.68572076  1301,6741.121999999999,91.803,363.511,362.463,0.0
53434.0,STARLINK-4498,PAYLOAD,2022-10-11 22:00:00,15.67758427,0.0001054999999999,53.2174,297.654,63.0813,52.7312,-0.011249,-0.01139605,0.0,0 STARLINK-4498,1 53434U 22097AY  22284.91667824 -.01139605  00000-0 -11249-1 0  9995,2 53434  53.2174 297.6540 0001055  63.0813  52.7312 15.67758427 10304,6743.454000000002,91.851,366.031,364.608,0.0
53434.0,STARLINK-4498,PAYLOAD,2022-10-12 14:00:01,15.66131527,0.0001145,53.2171,294.3872,65.4667,213.1465,-0.0120159999999999,-0.01139136,0.0,0 STARLINK-4498,1 53434U 22097AY  22285.58334491 -.01139136  00000-0 -12016-1 0  9992,2 53434  53.2171 294.3872 0001145  65.4667 213.1465 15.66131527 10404,6748.123000000001,91.946,370.761,369.216,0.0
53434.0,STARLINK-4498,PAYLOAD,2022-10-12 22:00:00,15.65314539,0.0001027,53.2172,292.754,66.0565,292.4937,-0.012367,-0.01134741,0.0,0 STARLINK-4498,1 53434U 22097AY  22285.91667824 -.01134741  00000-0 -12367-1 0  9994,2 53434  53.2172 292.7540 0001027  66.0565 292.4937 15.65314539  1300,6750.471,91.994,373.03,371.643,0.0
53434.0,STARLINK-4498,PAYLOAD,2022-10-13 06:00:00,15.64502963,0.0001071,53.2173,291.1264,92.7796,344.7251,-0.012805,-0.01137055,0.0,0 STARLINK-4498,1 53434U 22097AY  22286.25001157 -.01137055  00000-0 -12805-1 0  9991,2 53434  53.2173 291.1264 0001071  92.7796 344.7251 15.64502963 10510,6752.806,92.042,375.394,373.947,0.0
53434.0,STARLINK-4498,PAYLOAD,2022-10-13 14:00:01,15.6368986,0.0001167999999999,53.2172,289.4991,92.9843,62.499,-0.0132389999999999,-0.01138038,0.0,0 STARLINK-4498,1 53434U 22097AY  22286.58334491 -.01138038  00000-0 -13239-1 0  9991,2 53434  53.2172 289.4991 0001168  92.9843  62.4990 15.63689860  1300,6755.146,92.09,377.8,376.222,0.0
53434.0,STARLINK-4498,PAYLOAD,2022-10-13 22:00:00,15.62874259,0.0001189,53.2173,287.8719,90.861,141.6248,-0.013632,-0.01134919,0.0,0 STARLINK-4498,1 53434U 22097AY  22286.91667824 -.01134919  00000-0 -13632-1 0  9998,2 53434  53.2173 287.8719 0001189  90.8610 141.6248 15.62874259  1306,6757.496,92.138,380.165,378.5580000000001,0.0
53434.0,STARLINK-4498,PAYLOAD,2022-10-14 14:00:01,15.61247651,9.79e-05,53.2172,284.6287,94.5438,289.0091,-0.014527,-0.01134688,0.0,0 STARLINK-4498,1 53434U 22097AY  22287.58334491 -.01134688  00000-0 -14527-1 0  9990,2 53434  53.2172 284.6287 0000979  94.5438 289.0091 15.61247651  1307,6762.189,92.234,384.716,383.392,0.0
53434.0,STARLINK-4498,PAYLOAD,2022-10-14 16:00:00,15.61044461,0.0001157,53.2174,284.223,90.904,41.2573,-0.014658,-0.0113584999999999,0.0,0 STARLINK-4498,1 53434U 22097AY  22287.66667824 -.01135850  00000-0 -14658-1 0  9995,2 53434  53.2174 284.2230 0001157  90.9040  41.2573 15.61044461 10735,6762.776,92.246,385.423,383.858,0.0
53434.0,STARLINK-4498,PAYLOAD,2022-10-14 18:00:00,15.60841289,0.0001214,53.2176,283.8176,102.0433,138.6654,-0.014777,-0.0113607,0.0,0 STARLINK-4498,1 53434U 22097AY  22287.75001157 -.01136070  00000-0 -14777-1 0  9993,2 53434  53.2176 283.8176 0001214 102.0433 138.6654 15.60841289  1302,6763.363,92.258,386.049,384.407,0.0
53434.0,STARLINK-4498,PAYLOAD,2022-10-15 14:00:01,15.58807296,0.0001189,53.2171,279.7761,85.0806,157.7399,-0.015987,-0.01136503,0.0,0 STARLINK-4498,1 53434U 22097AY  22288.58334491 -.01136503  00000-0 -15987-1 0  9990,2 53434  53.2171 279.7761 0001189  85.0806 157.7399 15.58807296 10873,6769.245,92.378,391.915,390.305,0.0
53434.0,STARLINK-4498,PAYLOAD,2022-10-15 22:00:01,15.57989821,0.0001094,53.2173,278.1608,76.40899999999998,237.6123,-0.01639,-0.01130108,0.0,0 STARLINK-4498,1 53434U 22097AY  22288.91668981 -.01130108  00000-0 -16390-1 0  9995,2 53434  53.2173 278.1608 0001094  76.4090 237.6123 15.57989821  1307,6771.611999999999,92.427,394.218,392.737,0.0
53434.0,STARLINK-4498,PAYLOAD,2022-10-16 14:00:01,15.56364195,0.0001097999999999,53.2173,274.9411,81.6709,11.6176,-0.017457,-0.01131969,0.0,0 STARLINK-4498,1 53434U 22097AY  22289.58334491 -.01131969  00000-0 -17457-1 0  9996,2 53434  53.2173 274.9411 0001098  81.6709  11.6176 15.56364195  1300,6776.3269999999975,92.523,398.936,397.448,0.0
53434.0,STARLINK-4498,PAYLOAD,2022-10-16 22:00:00,15.55550817,0.0001247,53.2175,273.332,90.866,70.6232,-0.018002,-0.0113241,0.0,0 STARLINK-4498,1 53434U 22097AY  22289.91667824 -.01132410  00000-0 -18002-1 0  9991,2 53434  53.2175 273.3320 0001247  90.8660  70.6232 15.55550817  1303,6778.689,92.572,401.399,399.709,0.0
53434.0,STARLINK-4498,PAYLOAD,2022-10-17 06:00:00,15.54735799,0.0001308,53.2176,271.7283,76.9777,151.7331,-0.018515,-0.01130251,0.0,0 STARLINK-4498,1 53434U 22097AY  22290.25001157 -.01130251  00000-0 -18515-1 0  9991,2 53434  53.2176 271.7283 0001308  76.9777 151.7331 15.54735799 11132,6781.058000000001,92.62,403.81,402.036,0.0
53434.0,STARLINK-4498,PAYLOAD,2022-10-17 14:00:01,15.53923951,0.0001119,53.2173,270.1238,80.8828,214.0724,-0.019138,-0.01133438,0.0,0 STARLINK-4498,1 53434U 22097AY  22290.58334491 -.01133438  00000-0 -19138-1 0  9999,2 53434  53.2173 270.1238 0001119  80.8828 214.0724 15.53923951  1308,6783.419,92.669,406.043,404.525,0.0
53434.0,STARLINK-4498,PAYLOAD,2022-10-17 22:00:00,15.53106582,0.0001094999999999,53.2175,268.5208,105.9152,254.3082,-0.019592,-0.01126797,0.0,0 STARLINK-4498,1 53434U 22097AY  22290.91667824 -.01126797  00000-0 -19592-1 0  9999,2 53434  53.2175 268.5208 0001095 105.9152 254.3082 15.53106582  1318,6785.799,92.717,408.407,406.921,0.0
53434.0,STARLINK-4498,PAYLOAD,2022-10-18 00:00:00,15.52904509,0.000117,53.2177,268.1211,95.119,11.2676,-0.019774,-0.0112872999999999,0.0,0 STARLINK-4498,1 53434U 22097AY  22291.00001157 -.01128730  00000-0 -19774-1 0  9992,2 53434  53.2177 268.1211 0001170  95.1190  11.2676 15.52904509 11253,6786.388000000001,92.729,409.047,407.459,0.0
